NORAD_CAT_ID,OBJECT_NAME,OBJECT_TYPE,EPOCH,MEAN_MOTION,ECCENTRICITY,INCLINATION,RA_OF_ASC_NODE,ARG_OF_PERICENTER,MEAN_ANOMALY,BSTAR,MEAN_MOTION_DOT,MEAN_MOTION_DDOT,TLE_LINE0,TLE_LINE1,TLE_LINE2,SEMIMAJOR_AXIS,PERIOD,APOGEE,PERIGEE,DECAYED
49724.0,STARLINK-3219,PAYLOAD,2024-01-06 11:52:01,15.08840543,0.0001372,53.2164,110.1365,72.2934,287.8207,3.4483e-05,2.61e-06,0.0,0 STARLINK-3219,1 49724U 21115A   24006.49445642  .00000261  00000-0  34483-4 0  9991,2 49724  53.2164 110.1365 0001372  72.2934 287.8207 15.08840543116893,6917.879,95.438,540.693,538.795,0.0
49724.0,STARLINK-3219,PAYLOAD,2024-01-06 13:27:24,15.08842018,0.000138,53.2163,109.8389,73.9596,286.1548,4.6387e-05,4.5e-06,0.0,0 STARLINK-3219,1 49724U 21115A   24006.56069507  .00000450  00000-0  46387-4 0  9997,2 49724  53.2163 109.8389 0001380  73.9596 286.1548 15.08842018115791,6917.874,95.437,540.694,538.785,0.0
49724.0,STARLINK-3219,PAYLOAD,2024-01-07 11:42:48,15.08839818,0.0001315,53.2167,105.6742,91.9258,268.1885,2.2926e-05,7.7e-07,0.0,0 STARLINK-3219,1 49724U 21115A   24007.48805681  .00000077  00000-0  22926-4 0  9998,2 49724  53.2167 105.6742 0001315  91.9258 268.1885 15.08839818115939,6917.881,95.438,540.656,538.836,0.0
49724.0,STARLINK-3219,PAYLOAD,2024-01-07 16:28:57,15.088416,0.0001346,53.2166,104.7817,96.1483,263.9662,5.1061e-05,5.25e-06,0.0,0 STARLINK-3219,1 49724U 21115A   24007.68677485  .00000525  00000-0  51061-4 0  9999,2 49724  53.2166 104.7817 0001346  96.1483 263.9662 15.08841600117077,6917.875,95.437,540.672,538.809,0.0
49724.0,STARLINK-3219,PAYLOAD,2024-01-08 13:08:58,15.08840709,0.0001299,53.2171,100.916,87.5301,272.5839,5.1828e-05,5.37e-06,0.0,0 STARLINK-3219,1 49724U 21115A   24008.54789681  .00000537  00000-0  51828-4 0  9991,2 49724  53.2171 100.9160 0001299  87.5301 272.5839 15.08840709116094,6917.878,95.438,540.642,538.845,0.0
49724.0,STARLINK-3219,PAYLOAD,2024-01-09 05:02:50,15.08836615,0.0001304,53.2174,97.9405,89.4445,270.6697,3.0852e-05,2.03e-06,0.0,0 STARLINK-3219,1 49724U 21115A   24009.21030141  .00000203  00000-0  30852-4 0  9990,2 49724  53.2174  97.9405 0001304  89.4445 270.6697 15.08836615117308,6917.891,95.438,540.658,538.854,0.0
49724.0,STARLINK-3219,PAYLOAD,2024-01-09 11:24:22,15.08840701,0.0001364,53.2171,96.7521,83.068,277.0467,6.302e-05,7.15e-06,0.0,0 STARLINK-3219,1 49724U 21115A   24009.47525821  .00000715  00000-0  63020-4 0  9993,2 49724  53.2171  96.7521 0001364  83.0680 277.0467 15.08840701116236,6917.878,95.438,540.687,538.8,0.0
49724.0,STARLINK-3219,PAYLOAD,2024-01-10 11:15:09,15.08841018,0.0001528,53.2171,92.294,64.334,295.781,0.00010062,1.314e-05,0.0,0 STARLINK-3219,1 49724U 21115A   24010.46885931  .00001314  00000-0  10062-3 0  9998,2 49724  53.2171  92.2940 0001528  64.3340 295.7810 15.08841018117499,6917.877,95.437,540.799,538.685,0.0
49724.0,STARLINK-3219,PAYLOAD,2024-01-10 14:25:55,15.08850937,0.0001357,53.2169,91.6979,80.8506,279.264,0.00011281,1.508e-05,0.0,0 STARLINK-3219,1 49724U 21115A   24010.60133160  .00001508  00000-0  11281-3 0  9993,2 49724  53.2169  91.6979 0001357  80.8506 279.2640 15.08850937117519,6917.847,95.437,540.651,538.773,0.0
49724.0,STARLINK-3219,PAYLOAD,2024-01-11 11:05:56,15.08843306,0.0001484,53.2168,87.8334,72.2234,287.892,0.00010195,1.335e-05,0.0,0 STARLINK-3219,1 49724U 21115A   24011.46245803  .00001335  00000-0  10195-3 0  9997,2 49724  53.2168  87.8334 0001484  72.2234 287.8920 15.08843306117646,6917.87,95.437,540.762,538.709,0.0
49724.0,STARLINK-3219,PAYLOAD,2024-01-11 14:16:41,15.08853139,0.0001476,53.2169,87.2376,78.1762,281.9395,0.00018751,2.699e-05,0.0,0 STARLINK-3219,1 49724U 21115A   24011.59493043  .00002699  00000-0  18751-3 0  9992,2 49724  53.2169  87.2376 0001476  78.1762 281.9395 15.08853139116554,6917.84,95.437,540.726,538.684,0.0
49724.0,STARLINK-3219,PAYLOAD,2024-01-12 10:56:43,15.08843066,0.0001659,53.2171,83.3707,105.6549,254.4626,1.6416e-05,-2.7e-07,0.0,0 STARLINK-3219,1 49724U 21115A   24012.45605744 -.00000027  00000-0  16416-4 0  9992,2 49724  53.2171  83.3707 0001659 105.6549 254.4626 15.08843066117791,6917.871,95.437,540.884,538.588,0.0
49724.0,STARLINK-3219,PAYLOAD,2024-01-12 14:07:29,15.08847053,0.0001699,53.2173,82.7756,107.8974,252.2204,8.1285e-05,1.006e-05,0.0,0 STARLINK-3219,1 49724U 21115A   24012.58853563  .00001006  00000-0  81285-4 0  9993,2 49724  53.2173  82.7756 0001699 107.8974 252.2204 15.08847053116708,6917.859,95.437,540.899,538.548,0.0
49724.0,STARLINK-3219,PAYLOAD,2024-01-13 10:47:30,15.08844698,0.0001703,53.2172,78.9108,94.35,265.7686,6.8342e-05,8e-06,0.0,0 STARLINK-3219,1 49724U 21115A   24013.44966025  .00000800  00000-0  68342-4 0  9997,2 49724  53.2172  78.9108 0001703  94.3500 265.7686 15.08844698116835,6917.866,95.437,540.909,538.553,0.0
49724.0,STARLINK-3219,PAYLOAD,2024-01-13 23:30:35,15.08847972,0.0001673,53.2165,76.5349,88.5235,271.5949,9.4055e-05,1.209e-05,0.0,0 STARLINK-3219,1 49724U 21115A   24013.97957873  .00001209  00000-0  94055-4 0  9990,2 49724  53.2165  76.5349 0001673  88.5235 271.5949 15.08847972118022,6917.856,95.437,540.878,538.564,0.0
49724.0,STARLINK-3219,PAYLOAD,2024-01-14 10:38:17,15.0884526,0.0001536,53.217,74.4542,93.1254,266.9913,0.00019825,2.869e-05,0.0,0 STARLINK-3219,1 49724U 21115A   24014.44326284  .00002869  00000-0  19825-3 0  9993,2 49724  53.2170  74.4542 0001536  93.1254 266.9913 15.08845260118095,6917.864,95.437,540.792,538.667,0.0
49724.0,STARLINK-3219,PAYLOAD,2024-01-14 13:49:03,15.08850456,0.0001446,53.2152,73.854,101.8246,258.2908,0.00022929,3.364e-05,0.0,0 STARLINK-3219,1 49724U 21115A   24014.57573784  .00003364  00000-0  22929-3 0  9996,2 49724  53.2152  73.8540 0001446 101.8246 258.2908 15.08850456117005,6917.848,95.437,540.714,538.713,0.0
49724.0,STARLINK-3219,PAYLOAD,2024-01-14 23:21:23,15.08838113,0.0001485,53.2162,72.0703,109.2483,250.867,7.7776e-05,9.5e-06,0.0,0 STARLINK-3219,1 49724U 21115A   24014.97318327  .00000950  00000-0  77776-4 0  9999,2 49724  53.2162  72.0703 0001485 109.2483 250.8670 15.08838113118175,6917.886,95.438,540.778,538.724,0.0
49724.0,STARLINK-3219,PAYLOAD,2024-01-15 08:53:41,15.08849364,0.0001836,53.2148,70.2833,116.6358,243.4823,0.00015006,2.102e-05,0.0,0 STARLINK-3219,1 49724U 21115A   24015.37061727  .00002102  00000-0  15006-3 0  9991,2 49724  53.2148  70.2833 0001836 116.6358 243.4823 15.08849364118231,6917.852,95.437,540.987,538.447,0.0
49724.0,STARLINK-3219,PAYLOAD,2024-01-16 03:58:19,15.08834768,0.0001737,53.2166,66.7238,86.6967,273.4224,-4.4503e-05,-9.96e-06,0.0,0 STARLINK-3219,1 49724U 21115A   24016.16550643 -.00000996  00000-0 -44503-4 0  9995,2 49724  53.2166  66.7238 0001737  86.6967 273.4224 15.08834768118355,6917.896,95.438,540.963,538.56,0.0
49724.0,STARLINK-3219,PAYLOAD,2024-01-16 13:30:38,15.08840687,0.000149,53.2172,64.9347,85.5458,274.5705,-2.333e-05,-6.59e-06,0.0,0 STARLINK-3219,1 49724U 21115A   24016.56294766 -.00000659  00000-0 -23330-4 0  9991,2 49724  53.2172  64.9347 0001490  85.5458 274.5705 15.08840687117309,6917.878,95.438,540.774,538.713,0.0
49724.0,STARLINK-3219,PAYLOAD,2024-01-16 23:02:58,15.0882804,0.0001697,53.2171,63.1507,103.9924,256.1257,4.0705e-05,3.6e-06,0.0,0 STARLINK-3219,1 49724U 21115A   24016.96039490  .00000360  00000-0  40705-4 0  9998,2 49724  53.2171  63.1507 0001697 103.9924 256.1257 15.08828040118475,6917.917,95.438,540.956,538.608,0.0
49724.0,STARLINK-3219,PAYLOAD,2024-01-17 10:10:39,15.08845422,0.0001887,53.2191,61.0785,84.766,275.3548,0.00012793,1.749e-05,0.0,0 STARLINK-3219,1 49724U 21115A   24017.42406612  .00001749  00000-0  12793-3 0  9991,2 49724  53.2191  61.0785 0001887  84.7660 275.3548 15.08845422118543,6917.864,95.437,541.034,538.423,0.0
49724.0,STARLINK-3219,PAYLOAD,2024-01-18 02:04:30,15.08844872,0.0002,53.2173,58.1044,65.8291,294.291,9.632e-05,1.245e-05,0.0,0 STARLINK-3219,1 49724U 21115A   24018.08646921  .00001245  00000-0  96320-4 0  9993,2 49724  53.2173  58.1044 0002000  65.8291 294.2910 15.08844872118648,6917.865,95.437,541.114,538.347,0.0
49724.0,STARLINK-3219,PAYLOAD,2024-01-18 11:36:49,15.08843768,0.0001808,53.2191,56.3116,89.7594,270.3605,0.00021977,3.212e-05,0.0,0 STARLINK-3219,1 49724U 21115A   24018.48390679  .00003212  00000-0  21977-3 0  9994,2 49724  53.2191  56.3116 0001808  89.7594 270.3605 15.08843768117596,6917.869,95.437,540.985,538.483,0.0
49724.0,STARLINK-3219,PAYLOAD,2024-01-19 11:27:36,15.08850015,0.0002105,53.2196,51.8446,73.6323,286.4901,4.6519e-05,4.52e-06,0.0,0 STARLINK-3219,1 49724U 21115A   24019.47750960  .00000452  00000-0  46519-4 0  9990,2 49724  53.2196  51.8446 0002105  73.6323 286.4901 15.08850015118850,6917.85,95.437,541.171,538.259,0.0
49724.0,STARLINK-3219,PAYLOAD,2024-01-20 01:46:05,15.08841004,0.0001657,53.218,49.1719,103.9014,256.2163,-6.8824e-06,-3.98e-06,0.0,0 STARLINK-3219,1 49724U 21115A   24020.07367436 -.00000398  00000-0 -68824-5 0  9995,2 49724  53.2180  49.1719 0001657 103.9014 256.2163 15.08841004118944,6917.877,95.437,540.889,538.596,0.0
49724.0,STARLINK-3219,PAYLOAD,2024-01-20 08:07:37,15.08845769,0.0001925,53.2188,47.984,105.9657,254.1548,4.3544e-05,4.05e-06,0.0,0 STARLINK-3219,1 49724U 21115A   24020.33862982  .00000405  00000-0  43544-4 0  9998,2 49724  53.2188  47.9840 0001925 105.9657 254.1548 15.08845769117873,6917.863,95.437,541.059,538.396,0.0
49724.0,STARLINK-3219,PAYLOAD,2024-01-21 01:36:52,15.08845468,0.0001638,53.2169,44.7146,101.0777,259.0399,1.7473e-05,-1e-07,0.0,0 STARLINK-3219,1 49724U 21115A   24021.06727320 -.00000010  00000-0  17473-4 0  9990,2 49724  53.2169  44.7146 0001638 101.0777 259.0399 15.08845468119097,6917.864,95.437,540.862,538.596,0.0
49724.0,STARLINK-3219,PAYLOAD,2024-01-21 06:23:01,15.08848101,0.0001842,53.2173,43.8222,119.3173,240.8003,3.4771e-05,2.65e-06,0.0,0 STARLINK-3219,1 49724U 21115A   24021.26598999  .00000265  00000-0  34771-4 0  9991,2 49724  53.2173  43.8222 0001842 119.3173 240.8003 15.08848101118014,6917.856,95.437,540.995,538.446,0.0
